IRIDIUM 64 [+]          
1 25287U 98021C   17224.04114925 -.00000055  00000-0 -26551-4 0  9991
2 25287  86.3976 200.6009 0002356  80.6102 279.5360 14.34213940 13002
IRIDIUM 65 [+]          
1 25288U 98021D   17224.11724484 -.00000047  00000-0 -23885-4 0  9995
2 25288  86.3975 200.4716 0002259  87.7649 272.3806 14.34214425 13039
IRIDIUM 66 [+]          
1 25289U 98021E   17224.05383305 -.00000045  00000-0 -23217-4 0  9999
2 25289  86.3974 200.4010 0002170  85.8070 274.3374 14.34213988 13018
IRIDIUM 67 [+]          
1 25290U 98021F   17224.47878941  .00000017  00000-0 -83992-6 0  9998
2 25290  86.3975 200.3605 0002291  87.7575 272.3883 14.34214342 13091
IRIDIUM 68 [+]          
1 25291U 98021G   17224.06651801 -.00000054  00000-0 -26347-4 0  9999
2 25291  86.3977 200.6525 0002272  83.9248 276.2207 14.34213861 13012
IRIDIUM 69 [-]          
1 25319U 98026A   17224.44916702  .00000123  00000-0  33607-4 0  9993
2 25319  86.3981 222.0384 0004137  90.2383 269.9289 14.38682455 11124
IRIDIUM 71 [-]          
1 25320U 98026B   17224.49277696  .00000063  00000-0  14039-4 0  9993
2 25320  86.3968 217.8843 0003550 122.9043 237.2498 14.39095234 11569
IRIDIUM 70 [+]          
1 25342U 98032A   17224.46986149  .00000018  00000-0 -75056-6 0  9990
2 25342  86.3980 200.7286 0002234  90.4191  60.1237 14.34214238  7167
IRIDIUM 72 [+]          
1 25343U 98032B   17224.07921706 -.00000047  00000-0 -23836-4 0  9996
2 25343  86.3975 200.5000 0002205  85.2339 274.9108 14.34213597  7112
IRIDIUM 73 [-]          
1 25344U 98032C   17224.42309826  .00000120  00000-0  26333-4 0  9994
2 25344  86.4465 179.1897 0001826  98.1861 261.9551 14.49050593 15695
IRIDIUM 75 [+]          
1 25346U 98032E   17224.08554945 -.00000061  00000-0 -28907-4 0  9997
2 25346  86.3979 200.7516 0002206  84.1911 275.9536 14.34213804  7687
IRIDIUM 3 [+]           
1 25431U 98048A   17224.14799007 -.00000062  00000-0 -29314-4 0  9990
2 25431  86.3944 232.3012 0002194  91.2092 311.9348 14.34217116993632
IRIDIUM 76 [+]          
1 25432U 98048B   17224.08894817  .00000006  00000-0 -49703-5 0  9991
2 25432  86.3938 232.0783 0002039  91.6125 268.5304 14.34215086993607
IRIDIUM 82 [-]          
1 25467U 98051A   17224.44510926  .00001180  00000-0  87864-4 0  9991
2 25467  86.4034 354.8485 0182755 189.8975 169.8637 14.89318185995228
IRIDIUM 81 [+]          
1 25468U 98051B   17224.44559634  .00000091  00000-0  23188-4 0  9990
2 25468  86.4259 358.2776 0001878  87.2691 272.8722 14.38611890990937
IRIDIUM 80 [+]          
1 25469U 98051C   17224.48388627  .00000108  00000-0  31441-4 0  9997
2 25469  86.3988 358.5499 0002911  92.1492 336.0570 14.34213021990905
IRIDIUM 77 [+]          
1 25471U 98051E   17224.46464751  .00000125  00000-0  34256-4 0  9997
2 25471  86.4248 358.1133 0002033 103.9929 321.8391 14.38607856996142
IRIDIUM 2 [-]           
1 25527U 98066A   17224.47106444  .00000987  00000-0  48516-4 0  9998
2 25527  85.5321 359.0205 0007163 235.3570 124.6995 15.16644914 26402
IRIDIUM 86 [+]          
1 25528U 98066B   17224.41639745  .00000154  00000-0  47893-4 0  9991
2 25528  86.3985 326.2877 0002247 100.7277 259.4171 14.34216643987420
IRIDIUM 84 [+]          
1 25530U 98066D   17224.37834174  .00000181  00000-0  57555-4 0  9998
2 25530  86.3986 326.4693 0002183  95.2093 264.9352 14.34219270985053
IRIDIUM 83 [+]          
1 25531U 98066E   17224.41005199  .00000171  00000-0  54023-4 0  9997
2 25531  86.3989 326.5837 0002235  93.4296 266.7155 14.34216510982413
IRIDIUM 20 [+]          
1 25577U 98074A   17224.12063398 -.00000045  00000-0 -23162-4 0  9991
2 25577  86.3940 231.9854 0002224  87.8284 272.3166 14.34217395976454
IRIDIUM 11 [+]          
1 25578U 98074B   17224.14621378 -.00000048  00000-0 -24275-4 0  9991
2 25578  86.3939 232.1758 0002323  87.5877 339.0639 14.34216917985426
IRIDIUM 14 [+]          
1 25777U 99032A   17224.24410984 -.00000046  00000-0 -23538-4 0  9996
2 25777  86.3978 200.5156 0002205  88.3566 271.7882 14.34214445962717
IRIDIUM 21 [+]          
1 25778U 99032B   17224.07286813 -.00000043  00000-0 -22577-4 0  9999
2 25778  86.3976 200.6052 0002107  81.2081 278.9354 14.34213858956125
IRIDIUM 91 [+]          
1 27372U 02005A   17224.41279885  .00000051  00000-0  11304-4 0  9997
2 27372  86.3938 263.6559 0001922 101.7077  13.6152 14.34221949819682
IRIDIUM 90 [S]          
1 27373U 02005B   17224.43094739  .00000194  00000-0  51978-4 0  9992
2 27373  86.4499 326.5618 0002222  99.1699 260.9753 14.42953344819465
IRIDIUM 94 [+]          
1 27374U 02005C   17224.23390319 -.00000078  00000-0 -35045-4 0  9994
2 27374  86.3941 232.2705 0001627  98.1332 322.8396 14.34216639823981
IRIDIUM 95 [+]          
1 27375U 02005D   17224.49829412  .00000023  00000-0  13204-5 0  9996
2 27375  86.3935 263.6415 0001341  92.0305 268.1044 14.34221786818982
IRIDIUM 96 [+]          
1 27376U 02005E   17224.33679569  .00000164  00000-0  51500-4 0  9992
2 27376  86.3994 295.7605 0001571  66.4732 293.6629 14.34221444824169
IRIDIUM 97 [+]          
1 27450U 02031A   17224.51439051  .00000093  00000-0  26047-4 0  9993
2 27450  86.3962 295.3427 0002408  90.0855 270.0617 14.34220924798308
IRIDIUM 98 [+]          
1 27451U 02031B   17224.49011229  .00000101  00000-0  28833-4 0  9999
2 27451  86.3982 358.6415 0002513 103.5997 324.0690 14.34212726799375
